KUIPER-00453            
1 68947U 26098AE  26201.91668981 -.01608335  00000+0 -54419-1 0  9999
2 68947  51.8760 264.2576 0003268 355.0569 289.4455 15.33092729  5516
KUIPER-00454            
1 68948U 26098AF  26201.91668981 -.00025608  00000+0 -36303-2 0  9998
2 68948  51.8991 275.2058 0003654 156.0085  96.9233 14.76446447  5534
KUIPER-00455            
1 68949U 26098AG  26201.91668981 -.00074319  00000+0 -97370-2 0  9993
2 68949  51.8989 274.0133 0004656 255.4264 302.9993 14.80310949  5703
KUIPER-00458            
1 68950U 26098AH  26201.91668981 -.00022182  00000+0 -68512-3 0  9993
2 68950  51.8783 264.5735 0003022 321.9708 156.7953 15.32576362  5888
KUIPER-00282            
1 69267U 26118A   26201.91668981 -.00054701  00000+0 -39214-2 0  9996
2 69267  51.8844 252.7840 0010247 330.7556  25.3527 15.03982406  5820
KUIPER-00383            
1 69268U 26118B   26201.91668981 -.00592118  00000+0 -30568-1 0  9998
2 69268  51.8746 251.7193 0009859 316.3438 251.0924 15.18151680  2877
KUIPER-00527            
1 69269U 26118C   26201.91668981 -.00030808  00000+0 -16635-2 0  9992
2 69269  51.8806 251.6940 0008847 313.4592 228.6698 15.14024907  2829
KUIPER-00562            
1 69270U 26118D   26201.38194722  .00012831  00000+0  34584-3 0  9990
2 69270  51.8714 252.4064 0000400  50.9788 309.1234 15.38164202  9098
KUIPER-00570            
1 69271U 26118E   26201.91668981 -.00029411  00000+0 -28880-2 0  9998
2 69271  51.8928 254.4824 0006935 319.5785 224.4277 14.91590139  4509
KUIPER-00572            
1 69272U 26118F   26201.91668981 -.01530138  00000+0 -90741-1 0  9997
2 69272  51.8783 251.3499 0003815 306.4040  63.0446 15.14229921  3537
KUIPER-00581            
1 69273U 26118G   26201.91668981 -.00033186  00000+0 -35062-2 0  9994
2 69273  51.8982 254.2311 0004310 292.0310  47.3716 14.88737383  3491
KUIPER-00584            
1 69274U 26118H   26201.91668981 -.00053182  00000+0 -65688-2 0  9990
2 69274  51.9003 256.6500 0009787 336.3417 198.1598 14.82555565  5732
KUIPER-00587            
1 69275U 26118J   26201.91668981  .00010666  00000+0  37299-3 0  9997
2 69275  51.8661 250.5212 0007728 320.9548 133.7821 15.30046253  5672
KUIPER-00590            
1 69276U 26118K   26201.91668981 -.00011341  00000+0 -85019-3 0  9994
2 69276  51.8887 252.4310 0003413  19.1471 270.9596 15.01393830  3734
KUIPER-00592            
1 69277U 26118L   26201.91668981 -.00045530  00000+0 -31513-2 0  9991
2 69277  51.8846 252.0059 0002420 231.7567 286.2647 15.05251343  5376
KUIPER-00593            
1 69278U 26118M   26201.83621081  .00016976  00000+0  44460-3 0  9999
2 69278  51.8695 250.2037 0003057 308.6756  51.3957 15.38809326  9225
KUIPER-00594            
1 69279U 26118N   26201.38611153  .00004288  00000+0  12515-3 0  9998
2 69279  51.8693 252.4360 0001986  90.5970 269.5245 15.37506291  9093
KUIPER-00595            
1 69280U 26118P   26201.84367011  .00015469  00000+0  42313-3 0  9994
2 69280  51.8701 250.2506 0001505  16.2037 343.8998 15.37540236  9198
KUIPER-00596            
1 69281U 26118Q   26201.91668981 -.00049138  00000+0 -61328-2 0  9991
2 69281  51.9013 256.5305 0006679 349.9854 278.3217 14.82105602  5412
KUIPER-00597            
1 69282U 26118R   26201.41430743  .00011537  00000+0  31497-3 0  9995
2 69282  51.8634 252.5953 0006285 309.8183  50.2250 15.37864882  9094
KUIPER-00599            
1 69283U 26118S   26201.91668981 -.01091977  00000+0 -45668-1 0  9990
2 69283  51.8750 250.4242 0005785 304.5822 224.8036 15.26060896  4309
KUIPER-00600            
1 69284U 26118T   26201.36075485  .00012591  00000+0  34636-3 0  9998
2 69284  51.8621 252.9790 0008049 309.1896  50.8375 15.37528222  9087
KUIPER-00601            
1 69285U 26118U   26201.91668981 -.00014929  00000+0 -10673-2 0  9992
2 69285  51.8914 252.1629 0002678 344.4115  21.7148 15.03413799  4911
KUIPER-00602            
1 69286U 26118V   26201.91668981  .00000386  00000+0  22121-4 0  9996
2 69286  51.8700 249.8709 0002405 301.9904 117.9408 15.35203223  5551
KUIPER-00603            
1 69287U 26118W   26201.91668981 -.01129871  00000+0 -45025-1 0  9996
2 69287  51.8731 250.2970 0003148 302.0786 242.2709 15.27770622  5095
KUIPER-00605            
1 69288U 26118X   26201.91668981 -.00029477  00000+0 -29010-2 0  9994
2 69288  51.8961 254.3023 0004579  25.5581  72.5309 14.91514109  4459
KUIPER-00606            
1 69289U 26118Y   26201.91668981 -.01723837  00000+0 -74682-1 0  9991
2 69289  51.8785 250.2647 0002388 295.8049 285.1459 15.25358574  5424
KUIPER-00607            
1 69290U 26118Z   26201.40365948  .00016285  00000+0  43741-3 0  9997
2 69290  51.8665 252.5363 0005060 296.3958  63.6509 15.38055656  9099
KUIPER-00608            
1 69291U 26118AA  26201.42795747 -.00027115  00000+0 -81896-3 0  9993
2 69291  51.8596 253.3933 0008178 320.5048  39.5340 15.33365755  9081
KUIPER-00610            
1 69292U 26118AB  26201.91668981 -.00270419  00000+0 -80417-2 0  9991
2 69292  51.8716 249.7815 0001090  12.7231  89.3137 15.35294764  4663
KUIPER-00613            
1 69293U 26118AC  26201.91668981 -.00037438  00000+0 -38051-2 0  9991
2 69293  51.8959 254.2743 0008807 328.4704  68.5447 14.90324317  5122
KUIPER-00618            
1 69294U 26118AD  26201.84497150  .00015368  00000+0  41906-3 0  9992
2 69294  51.8713 250.2585 0000943 353.8009   6.2966 15.37641455  9164
KUIPER-00620            
1 69295U 26118AE  26201.91668981 -.01383466  00000+0 -42927-1 0  9995
2 69295  51.8719 249.7785 0001337 277.1662 190.8854 15.35847472  2329
KUIPER-00423            
1 69592U 26140A   26201.37891334  .00016485  00000+0  43451-3 0  9996
2 69592  51.8792 237.9442 0013202 289.5860  70.3702 15.38560785  6342
KUIPER-00428            
1 69593U 26140B   26201.81294214  .00013201  00000+0  36847-3 0  9994
2 69593  51.8796 236.3415 0008122  48.9308 311.2380 15.37029240  6400
KUIPER-00481            
1 69594U 26140C   26201.58696149  .00004324  00000+0  12450-3 0  9992
2 69594  51.8786 237.0855 0010893 310.2671  49.7363 15.37897687  6370
KUIPER-00490            
1 69595U 26140D   26201.79173019  .00016527  00000+0  44485-3 0  9993
2 69595  51.8758 236.1933 0007350 358.5273   1.5691 15.37966683  6401
KUIPER-00493            
1 69596U 26140E   26201.91668981  .00040696  00000+0  14021-2 0  9991
2 69596  51.8826 236.0105 0008782  57.2904  70.9570 15.29591528  5826
KUIPER-00496            
1 69597U 26140F   26201.46194499  .00004563  00000+0  14757-3 0  9990
2 69597  51.8772 238.4717 0010979  68.8851 291.3307 15.34039227  6346
KUIPER-00513            
1 69598U 26140G   26201.46281296  .00011412  00000+0  30799-3 0  9998
2 69598  51.8789 237.7530 0007838 356.1197   3.9728 15.38226965  6352
KUIPER-00516            
1 69599U 26140H   26201.40804412  .00007293  00000+0  20439-3 0  9996
2 69599  51.8781 238.1256 0007396  13.1130 347.0048 15.37661206  6347
KUIPER-00517            
1 69600U 26140J   26201.44558600  .00016247  00000+0  42506-3 0  9996
2 69600  51.8759 237.6291 0010604 312.3615  47.6473 15.38832216  6354
KUIPER-00520            
1 69601U 26140K   26201.47372425  .00014325  00000+0  39019-3 0  9999
2 69601  51.8797 237.8292 0006918  12.7706 347.3455 15.37720467  6358
KUIPER-00522            
1 69602U 26140L   26201.37796947  .00016581  00000+0  43558-3 0  9997
2 69602  51.8770 237.9323 0012648 285.9720  73.9874 15.38666541  6342
KUIPER-00528            
1 69603U 26140M   26201.47706320  .00012599  00000+0  34782-3 0  9999
2 69603  51.8765 237.8372 0005730  21.6458 338.4770 15.37431260  6359
KUIPER-00532            
1 69604U 26140N   26201.49156928  .00016644  00000+0  46864-3 0  9994
2 69604  51.8777 237.9299 0005386  45.1343 315.0080 15.36570698  6356
KUIPER-00533            
1 69605U 26140P   26201.45843611  .00016373  00000+0  43530-3 0  9999
2 69605  51.8768 237.7184 0008086 346.1760  13.9005 15.38352154  6353
KUIPER-00534            
1 69606U 26140Q   26201.82698850  .00021929  00000+0  56941-3 0  9997
2 69606  51.8802 235.7020 0013373 289.1220  70.8319 15.38814753  6417
KUIPER-00537            
1 69607U 26140R   26201.91668981 -.02124323  00000+0 -76515-1 0  9993
2 69607  51.8800 236.2957 0008465  75.4886 282.8547 15.31428013  5725
KUIPER-00538            
1 69608U 26140S   26201.40597217  .00010367  00000+0  28468-3 0  9995
2 69608  51.8793 238.1190 0006847   1.2868 358.8136 15.37803546  6347
KUIPER-00540            
1 69609U 26140T   26201.81061103  .00013910  00000+0  38757-3 0  9990
2 69609  51.8814 236.3321 0006539  39.0306 321.1151 15.37046111  6406
KUIPER-00541            
1 69610U 26140U   26201.32813981  .00012802  00000+0  34357-3 0  9998
2 69610  51.8800 238.3571 0007716 336.9767  23.0873 15.38284409  6336
KUIPER-00542            
1 69611U 26140V   26201.91668981  .00044336  00000+0  11572-2 0  9992
2 69611  51.8768 235.4796 0007774 325.5471  62.9067 15.38343164  5449
KUIPER-00543            
1 69612U 26140W   26201.36049078  .00010842  00000+0  30587-3 0  9995
2 69612  51.8785 238.5466 0008069  53.1774 306.9952 15.36903174  6339
KUIPER-00544            
1 69613U 26140X   26201.33174301  .00016632  00000+0  44362-3 0  9990
2 69613  51.8776 238.3674 0007045 340.3913  19.6802 15.38246453  6332
KUIPER-00546            
1 69614U 26140Y   26201.83044288  .00017752  00000+0  47359-3 0  9999
2 69614  51.8768 235.7161 0014197 286.4265  73.5162 15.38117351  6413
KUIPER-00547            
1 69615U 26140Z   26201.65169759  .00208802  00000+0  53014-2 0  9993
2 69615  51.8771 236.7672 0012045 305.1870  54.7988 15.38276512  6385
KUIPER-00549            
1 69616U 26140AA  26201.80419161  .00013243  00000+0  36506-3 0  9997
2 69616  51.8779 236.2779 0008246  34.1563 325.9953 15.37412624  6406
KUIPER-00550            
1 69617U 26140AB  26201.41796501  .00007140  00000+0  24389-3 0  9996
2 69617  51.8788 238.9217 0008693  78.6919 281.5041 15.31356819  6331
